start=new Date('2022-06-30T00:00:00.000Z').valueOf();
sats=[{"ARG_OF_PERICENTER":"65.9389","SEMIMAJOR_AXIS":"6925.340","GP_ID":"207089102","REV_AT_EPOCH":"13364","COUNTRY_CODE":"US","TIME_SYSTEM":"UTC","RA_OF_ASC_NODE":"184.1307","LAUNCH_DATE":"2020-01-29","OBJECT_TYPE":"PAYLOAD","EPOCH":"2022-06-29T07:53:14.964288","EPHEMERIS_TYPE":"0","ELEMENT_SET_NO":"999","RCS_SIZE":"LARGE","INCLINATION":"53.0543","APOAPSIS":"548.341","MEAN_ELEMENT_THEORY":"SGP4","SITE":"AFETR","MEAN_MOTION":"15.06402631","DECAY_DATE":null,"PERIAPSIS":"546.070","MEAN_ANOMALY":"294.1771","OBJECT_ID":"2020-006AT","TLE_LINE1":"1 45085U 20006AT  22180.32864542  .00000560  00000-0  56506-4 0  9994","TLE_LINE2":"2 45085  53.0543 184.1307 0001640  65.9389 294.1771 15.06402631133645","REF_FRAME":"TEME","CLASSIFICATION_TYPE":"U","BSTAR":"0.00005650600000","OBJECT_NAME":"STARLINK-1179","MEAN_MOTION_DOT":"0.00000560","NORAD_CAT_ID":"45085","FILE":"3505485","CENTER_NAME":"EARTH","MEAN_MOTION_DDOT":"0.0000000000000","PERIOD":"95.592","ECCENTRICITY":"0.00016400"},{"REV_AT_EPOCH":"13373","ARG_OF_PERICENTER":"41.1513","GP_ID":"207116777","SEMIMAJOR_AXIS":"6896.709","RCS_SIZE":"LARGE","INCLINATION":"52.9963","APOAPSIS":"520.249","MEAN_ELEMENT_THEORY":"SGP4","COUNTRY_CODE":"US","LAUNCH_DATE":"2020-01-29","OBJECT_TYPE":"PAYLOAD","TIME_SYSTEM":"UTC","RA_OF_ASC_NODE":"171.4891","EPOCH":"2022-06-29T16:53:37.849920","ELEMENT_SET_NO":"999","EPHEMERIS_TYPE":"0","PERIAPSIS":"516.898","DECAY_DATE":null,"MEAN_ANOMALY":"318.9662","OBJECT_ID":"2020-006AU","TLE_LINE1":"1 45086U 20006AU  22180.70391030  .00009554  00000-0  50973-3 0  9997","TLE_LINE2":"2 45086  52.9963 171.4891 0002429  41.1513 318.9662 15.15793150133731","SITE":"AFETR","MEAN_MOTION":"15.15793150","NORAD_CAT_ID":"45086","FILE":"3505610","CENTER_NAME":"EARTH","PERIOD":"95.000","MEAN_MOTION_DDOT":"0.0000000000000","ECCENTRICITY":"0.00024290","BSTAR":"0.00050973000000","CLASSIFICATION_TYPE":"U","REF_FRAME":"TEME","OBJECT_NAME":"STARLINK-1181","MEAN_MOTION_DOT":"0.00009554"},{"ECCENTRICITY":"0.00014010","PERIOD":"95.593","MEAN_MOTION_DDOT":"0.0000000000000","FILE":"3505610","CENTER_NAME":"EARTH","NORAD_CAT_ID":"45087","MEAN_MOTION_DOT":"-0.00001191","OBJECT_NAME":"STARLINK-1185","BSTAR":"-0.00006110000000","CLASSIFICATION_TYPE":"U","REF_FRAME":"TEME","TLE_LINE2":"2 45087  53.0538 182.4074 0001401  69.2064 290.9075 15.06392409133704","TLE_LINE1":"1 45087U 20006AV  22180.71199627 -.00001191  00000-0 -61100-4 0  9993","MEAN_ANOMALY":"290.9075","OBJECT_ID":"2020-006AV","PERIAPSIS":"546.267","DECAY_DATE":null,"SITE":"AFETR","MEAN_MOTION":"15.06392409","MEAN_ELEMENT_THEORY":"SGP4","APOAPSIS":"548.207","INCLINATION":"53.0538","RCS_SIZE":"LARGE","ELEMENT_SET_NO":"999","EPHEMERIS_TYPE":"0","EPOCH":"2022-06-29T17:05:16.477728","OBJECT_TYPE":"PAYLOAD","LAUNCH_DATE":"2020-01-29","TIME_SYSTEM":"UTC","RA_OF_ASC_NODE":"182.4074","COUNTRY_CODE":"US","REV_AT_EPOCH":"13370","GP_ID":"207117527","SEMIMAJOR_AXIS":"6925.372","ARG_OF_PERICENTER":"69.2064"},{"MEAN_MOTION":"15.06404282","SITE":"AFETR","PERIAPSIS":"545.913","DECAY_DATE":null,"OBJECT_ID":"2020-006AW","MEAN_ANOMALY":"289.6976","TLE_LINE1":"1 45088U 20006AW  22180.73409307  .00000298  00000-0  38929-4 0  9993","TLE_LINE2":"2 45088  53.0527 182.3116 0001859  70.4213 289.6976 15.06404282133704","BSTAR":"0.00003892900000","CLASSIFICATION_TYPE":"U","REF_FRAME":"TEME","MEAN_MOTION_DOT":"0.00000298","OBJECT_NAME":"STARLINK-1183","CENTER_NAME":"EARTH","FILE":"3505610","NORAD_CAT_ID":"45088","PERIOD":"95.592","MEAN_MOTION_DDOT":"0.0000000000000","ECCENTRICITY":"0.00018590","ARG_OF_PERICENTER":"70.4213","GP_ID":"207117778","SEMIMAJOR_AXIS":"6925.335","REV_AT_EPOCH":"13370","COUNTRY_CODE":"US","LAUNCH_DATE":"2020-01-29","OBJECT_TYPE":"PAYLOAD","TIME_SYSTEM":"UTC","RA_OF_ASC_NODE":"182.3116","EPOCH":"2022-06-29T17:37:05.641248","ELEMENT_SET_NO":"999","EPHEMERIS_TYPE":"0","INCLINATION":"53.0527","RCS_SIZE":"LARGE","APOAPSIS":"548.488","MEAN_ELEMENT_THEORY":"SGP4"},{"FILE":"3505485","NORAD_CAT_ID":"45089","CENTER_NAME":"EARTH","PERIOD":"95.593","MEAN_MOTION_DDOT":"0.0000000000000","ECCENTRICITY":"0.00016950","CLASSIFICATION_TYPE":"U","BSTAR":"0.00004817100000","REF_FRAME":"TEME","MEAN_MOTION_DOT":"0.00000436","OBJECT_NAME":"STARLINK-1136","PERIAPSIS":"546.077","DECAY_DATE":null,"MEAN_ANOMALY":"297.6406","OBJECT_ID":"2020-006AX","TLE_LINE1":"1 45089U 20006AX  22180.40976628  .00000436  00000-0  48171-4 0  9997","TLE_LINE2":"2 45089  53.0537 183.8607 0001695  62.4755 297.6406 15.06387958133669","SITE":"AFETR","MEAN_MOTION":"15.06387958","RCS_SIZE":"LARGE","INCLINATION":"53.0537","APOAPSIS":"548.424","MEAN_ELEMENT_THEORY":"SGP4","COUNTRY_CODE":"US","OBJECT_TYPE":"PAYLOAD","LAUNCH_DATE":"2020-01-29","RA_OF_ASC_NODE":"183.8607","TIME_SYSTEM":"UTC","EPOCH":"2022-06-29T09:50:03.806592","ELEMENT_SET_NO":"999","EPHEMERIS_TYPE":"0","REV_AT_EPOCH":"13366","ARG_OF_PERICENTER":"62.4755","GP_ID":"207088602","SEMIMAJOR_AXIS":"6925.385"},{"PERIAPSIS":"546.170","DECAY_DATE":null,"MEAN_ANOMALY":"289.1065","OBJECT_ID":"2020-006AY","TLE_LINE1":"1 45090U 20006AY  22180.71841246  .00000599  00000-0  59114-4 0  9999","TLE_LINE2":"2 45090  53.0542 182.3794 0001537  71.0090 289.1065 15.06393319133701","MEAN_MOTION":"15.06393319","SITE":"AFETR","FILE":"3505610","NORAD_CAT_ID":"45090","CENTER_NAME":"EARTH","PERIOD":"95.593","MEAN_MOTION_DDOT":"0.0000000000000","ECCENTRICITY":"0.00015370","CLASSIFICATION_TYPE":"U","BSTAR":"0.00005911400000","REF_FRAME":"TEME","OBJECT_NAME":"STARLINK-1176","MEAN_MOTION_DOT":"0.00000599","REV_AT_EPOCH":"13370","ARG_OF_PERICENTER":"71.0090","GP_ID":"207116277","SEMIMAJOR_AXIS":"6925.369","INCLINATION":"53.0542","RCS_SIZE":"LARGE","APOAPSIS":"548.298","MEAN_ELEMENT_THEORY":"SGP4","COUNTRY_CODE":"US","LAUNCH_DATE":"2020-01-29","OBJECT_TYPE":"PAYLOAD","RA_OF_ASC_NODE":"182.3794","TIME_SYSTEM":"UTC","EPOCH":"2022-06-29T17:14:30.836544","ELEMENT_SET_NO":"999","EPHEMERIS_TYPE":"0"},{"RA_OF_ASC_NODE":"182.5118","TIME_SYSTEM":"UTC","OBJECT_TYPE":"PAYLOAD","LAUNCH_DATE":"2020-01-29","COUNTRY_CODE":"US","EPHEMERIS_TYPE":"0","ELEMENT_SET_NO":"999","EPOCH":"2022-06-29T16:38:44.221632","APOAPSIS":"548.425","RCS_SIZE":"LARGE","INCLINATION":"53.0543","MEAN_ELEMENT_THEORY":"SGP4","ARG_OF_PERICENTER":"62.9497","SEMIMAJOR_AXIS":"6925.361","GP_ID":"207117027","REV_AT_EPOCH":"13369","REF_FRAME":"TEME","CLASSIFICATION_TYPE":"U","BSTAR":"0.00004834000000","MEAN_MOTION_DOT":"0.00000438","OBJECT_NAME":"STARLINK-1137","FILE":"3505610","CENTER_NAME":"EARTH","NORAD_CAT_ID":"45092","ECCENTRICITY":"0.00017310","MEAN_MOTION_DDOT":"0.0000000000000","PERIOD":"95.592","SITE":"AFETR","MEAN_MOTION":"15.06395976","MEAN_ANOMALY":"297.1668","OBJECT_ID":"2020-006BA","DECAY_DATE":null,"PERIAPSIS":"546.027","TLE_LINE2":"2 45092  53.0543 182.5118 0001731  62.9497 297.1668 15.06395976133699","TLE_LINE1":"1 45092U 20006BA  22180.69356738  .00000438  00000-0  48340-4 0  9996"},{"ECCENTRICITY":"0.00015120","PERIOD":"95.593","MEAN_MOTION_DDOT":"0.0000000000000","FILE":"3505485","CENTER_NAME":"EARTH","NORAD_CAT_ID":"45093","OBJECT_NAME":"STARLINK-1142","MEAN_MOTION_DOT":"0.00000693","BSTAR":"0.00006541300000","CLASSIFICATION_TYPE":"U","REF_FRAME":"TEME","TLE_LINE2":"2 45093  53.0544 183.7136 0001512  67.5137 292.6012 15.06389717133658","TLE_LINE1":"1 45093U 20006BB  22180.42448686  .00000693  00000-0  65413-4 0  9995","OBJECT_ID":"2020-006BB","MEAN_ANOMALY":"292.6012","PERIAPSIS":"546.198","DECAY_DATE":null,"SITE":"AFETR","MEAN_MOTION":"15.06389717","MEAN_ELEMENT_THEORY":"SGP4","APOAPSIS":"548.292","INCLINATION":"53.0544","RCS_SIZE":"LARGE","ELEMENT_SET_NO":"999","EPHEMERIS_TYPE":"0","EPOCH":"2022-06-29T10:11:15.664704","LAUNCH_DATE":"2020-01-29","OBJECT_TYPE":"PAYLOAD","TIME_SYSTEM":"UTC","RA_OF_ASC_NODE":"183.7136","COUNTRY_CODE":"US","REV_AT_EPOCH":"13365","GP_ID":"207089854","SEMIMAJOR_AXIS":"6925.380","ARG_OF_PERICENTER":"67.5137"},{"CENTER_NAME":"EARTH","FILE":"3505610","NORAD_CAT_ID":"45094","ECCENTRICITY":"0.00015080","MEAN_MOTION_DDOT":"0.0000000000000","PERIOD":"95.593","REF_FRAME":"TEME","CLASSIFICATION_TYPE":"U","BSTAR":"-0.00005296400000","OBJECT_NAME":"STARLINK-1146","MEAN_MOTION_DOT":"-0.00001070","MEAN_ANOMALY":"294.7164","OBJECT_ID":"2020-006BC","DECAY_DATE":null,"PERIAPSIS":"546.187","TLE_LINE2":"2 45094  53.0536 182.4430 0001508  65.3982 294.7164 15.06394131133705","TLE_LINE1":"1 45094U 20006BC  22180.70367246 -.00001070  00000-0 -52964-4 0  9998","SITE":"AFETR","MEAN_MOTION":"15.06394131","APOAPSIS":"548.276","RCS_SIZE":"LARGE","INCLINATION":"53.0536","MEAN_ELEMENT_THEORY":"SGP4","TIME_SYSTEM":"UTC","RA_OF_ASC_NODE":"182.4430","LAUNCH_DATE":"2020-01-29","OBJECT_TYPE":"PAYLOAD","COUNTRY_CODE":"US","EPHEMERIS_TYPE":"0","ELEMENT_SET_NO":"999","EPOCH":"2022-06-29T16:53:17.300544","REV_AT_EPOCH":"13370","ARG_OF_PERICENTER":"65.3982","GP_ID":"207116528","SEMIMAJOR_AXIS":"6925.367"},{"BSTAR":"0.00005971400000","CLASSIFICATION_TYPE":"U","REF_FRAME":"TEME","OBJECT_NAME":"STARLINK-1147","MEAN_MOTION_DOT":"0.00000608","NORAD_CAT_ID":"45095","FILE":"3505485","CENTER_NAME":"EARTH","PERIOD":"95.593","MEAN_MOTION_DDOT":"0.0000000000000","ECCENTRICITY":"0.00018010","MEAN_MOTION":"15.06392244","SITE":"AFETR","PERIAPSIS":"545.990","DECAY_DATE":null,"OBJECT_ID":"2020-006BD","MEAN_ANOMALY":"306.6844","TLE_LINE1":"1 45095U 20006BD  22180.30926993  .00000608  00000-0  59714-4 0  9999","TLE_LINE2":"2 45095  53.0524 184.2064 0001801  53.4310 306.6844 15.06392244133649","COUNTRY_CODE":"US","LAUNCH_DATE":"2020-01-29","OBJECT_TYPE":"PAYLOAD","RA_OF_ASC_NODE":"184.2064","TIME_SYSTEM":"UTC","EPOCH":"2022-06-29T07:25:20.921952","ELEMENT_SET_NO":"999","EPHEMERIS_TYPE":"0","RCS_SIZE":"LARGE","INCLINATION":"53.0524","APOAPSIS":"548.485","MEAN_ELEMENT_THEORY":"SGP4","ARG_OF_PERICENTER":"53.4310","SEMIMAJOR_AXIS":"6925.372","GP_ID":"207088853","REV_AT_EPOCH":"13364"}];
